STARLINK-32458          
1 61962U 24210D   26068.48005889  .00027456  00000+0  10037-2 0  9993
2 61962  42.9997 166.6667 0001136 256.8221 103.2504 15.27575869 75047
LIME                    
1 62648U 25009AR  26068.73906781  .00013254  00000+0  47723-3 0  9995
2 62648  97.3985 151.4831 0001635  35.9029 324.2320 15.28703313 63766
